[{"OBJECT_NAME":"ORBCOMM FM113","OBJECT_ID":"2015-081G","EPOCH":"2026-03-09T06:16:31.573920","MEAN_MOTION":14.58730378,"ECCENTRICITY":6.326e-5,"INCLINATION":47.002,"RA_OF_ASC_NODE":23.0518,"ARG_OF_PERICENTER":114.2825,"MEAN_ANOMALY":245.8127,"EPHEMERIS_TYPE":0,"CLASSIFICATION_TYPE":"U","NORAD_CAT_ID":41185,"ELEMENT_SET_NO":999,"REV_AT_EPOCH":54434,"BSTAR":0.0002290927,"MEAN_MOTION_DOT":9.09e-6,"MEAN_MOTION_DDOT":0},{"OBJECT_NAME":"FENGYUN 1C DEB","OBJECT_ID":"1999-025CCF","EPOCH":"2026-03-08T08:16:56.162208","MEAN_MOTION":14.32099713,"ECCENTRICITY":0.01248578,"INCLINATION":99.3765,"RA_OF_ASC_NODE":273.6877,"ARG_OF_PERICENTER":162.0536,"MEAN_ANOMALY":198.5113,"EPHEMERIS_TYPE":0,"CLASSIFICATION_TYPE":"U","NORAD_CAT_ID":31673,"ELEMENT_SET_NO":999,"REV_AT_EPOCH":66116,"BSTAR":0.0004000152,"MEAN_MOTION_DOT":1.12e-5,"MEAN_MOTION_DDOT":0}]
